{"fetched_at":"2026-07-19T07:04:52.450Z","source":"https://celestrak.org/NORAD/elements/gp.php?GROUP=qianfan&FORMAT=JSON","constellation":"qianfan","records":[{"OBJECT_NAME":"QIANFAN-209","OBJECT_ID":"2026-153J","EPOCH":"2026-07-18T19:58:14.405088","CLASSIFICATION_TYPE":"U","MEAN_MOTION":14.23086808,"ECCENTRICITY":0.0007791,"INCLINATION":88.9926,"RA_OF_ASC_NODE":358.6302,"ARG_OF_PERICENTER":168.7667,"MEAN_ANOMALY":191.37,"EPHEMERIS_TYPE":0,"NORAD_CAT_ID":69808,"ELEMENT_SET_NO":999,"REV_AT_EPOCH":206,"BSTAR":0.000054604,"MEAN_MOTION_DOT":0.00000138,"MEAN_MOTION_DDOT":0},{"OBJECT_NAME":"QIANFAN-210","OBJECT_ID":"2026-153K","EPOCH":"2026-07-18T19:53:04.159104","CLASSIFICATION_TYPE":"U","MEAN_MOTION":14.232529,"ECCENTRICITY":0.0008338,"INCLINATION":88.9927,"RA_OF_ASC_NODE":358.6297,"ARG_OF_PERICENTER":171.4616,"MEAN_ANOMALY":188.6719,"EPHEMERIS_TYPE":0,"NORAD_CAT_ID":69809,"ELEMENT_SET_NO":999,"REV_AT_EPOCH":206,"BSTAR":0.000050091,"MEAN_MOTION_DOT":0.00000128,"MEAN_MOTION_DDOT":0},{"OBJECT_NAME":"QIANFAN-211","OBJECT_ID":"2026-153L","EPOCH":"2026-07-18T19:52:09.501600","CLASSIFICATION_TYPE":"U","MEAN_MOTION":14.23382425,"ECCENTRICITY":0.0007959,"INCLINATION":88.9926,"RA_OF_ASC_NODE":358.6295,"ARG_OF_PERICENTER":168.4891,"MEAN_ANOMALY":191.6485,"EPHEMERIS_TYPE":0,"NORAD_CAT_ID":69810,"ELEMENT_SET_NO":999,"REV_AT_EPOCH":206,"BSTAR":0.000045419,"MEAN_MOTION_DOT":0.00000118,"MEAN_MOTION_DDOT":0},{"OBJECT_NAME":"QIANFAN-212","OBJECT_ID":"2026-153M","EPOCH":"2026-07-18T04:32:30.888096","CLASSIFICATION_TYPE":"U","MEAN_MOTION":14.22682297,"ECCENTRICITY":0.00122,"INCLINATION":88.9888,"RA_OF_ASC_NODE":358.7049,"ARG_OF_PERICENTER":152.0967,"MEAN_ANOMALY":208.0882,"EPHEMERIS_TYPE":0,"NORAD_CAT_ID":69811,"ELEMENT_SET_NO":999,"REV_AT_EPOCH":197,"BSTAR":-0.9754,"MEAN_MOTION_DOT":-0.0201872,"MEAN_MOTION_DDOT":0},{"OBJECT_NAME":"QIANFAN-213","OBJECT_ID":"2026-153N","EPOCH":"2026-07-17T21:48:21.509856","CLASSIFICATION_TYPE":"U","MEAN_MOTION":14.21939575,"ECCENTRICITY":0.0007827,"INCLINATION":88.9917,"RA_OF_ASC_NODE":358.7338,"ARG_OF_PERICENTER":155.5754,"MEAN_ANOMALY":204.5809,"EPHEMERIS_TYPE":0,"NORAD_CAT_ID":69812,"ELEMENT_SET_NO":999,"REV_AT_EPOCH":193,"BSTAR":-0.98228,"MEAN_MOTION_DOT":-0.02004805,"MEAN_MOTION_DDOT":0},{"OBJECT_NAME":"QIANFAN-214","OBJECT_ID":"2026-153P","EPOCH":"2026-07-18T19:41:40.007616","CLASSIFICATION_TYPE":"U","MEAN_MOTION":14.2667261,"ECCENTRICITY":0.0008124,"INCLINATION":88.9926,"RA_OF_ASC_NODE":358.6285,"ARG_OF_PERICENTER":171.5236,"MEAN_ANOMALY":188.6097,"EPHEMERIS_TYPE":0,"NORAD_CAT_ID":69813,"ELEMENT_SET_NO":999,"REV_AT_EPOCH":206,"BSTAR":0.000019025,"MEAN_MOTION_DOT":6.1e-7,"MEAN_MOTION_DDOT":0},{"OBJECT_NAME":"QIANFAN-215","OBJECT_ID":"2026-153Q","EPOCH":"2026-07-18T19:41:34.617984","CLASSIFICATION_TYPE":"U","MEAN_MOTION":14.26719051,"ECCENTRICITY":0.0008338,"INCLINATION":88.9925,"RA_OF_ASC_NODE":358.6282,"ARG_OF_PERICENTER":173.8358,"MEAN_ANOMALY":186.294,"EPHEMERIS_TYPE":0,"NORAD_CAT_ID":69814,"ELEMENT_SET_NO":999,"REV_AT_EPOCH":206,"BSTAR":0.000047483,"MEAN_MOTION_DOT":0.0000013,"MEAN_MOTION_DDOT":0},{"OBJECT_NAME":"QIANFAN-216","OBJECT_ID":"2026-153R","EPOCH":"2026-07-18T19:41:33.869760","CLASSIFICATION_TYPE":"U","MEAN_MOTION":14.26720243,"ECCENTRICITY":0.000832,"INCLINATION":88.9926,"RA_OF_ASC_NODE":358.6284,"ARG_OF_PERICENTER":173.7282,"MEAN_ANOMALY":186.4018,"EPHEMERIS_TYPE":0,"NORAD_CAT_ID":69815,"ELEMENT_SET_NO":999,"REV_AT_EPOCH":206,"BSTAR":0.000052377,"MEAN_MOTION_DOT":0.00000141,"MEAN_MOTION_DDOT":0},{"OBJECT_NAME":"QIANFAN-217","OBJECT_ID":"2026-153S","EPOCH":"2026-07-18T19:40:50.888352","CLASSIFICATION_TYPE":"U","MEAN_MOTION":14.26768164,"ECCENTRICITY":0.0008009,"INCLINATION":88.9925,"RA_OF_ASC_NODE":358.6282,"ARG_OF_PERICENTER":170.3536,"MEAN_ANOMALY":189.7814,"EPHEMERIS_TYPE":0,"NORAD_CAT_ID":69816,"ELEMENT_SET_NO":999,"REV_AT_EPOCH":206,"BSTAR":0.000014313,"MEAN_MOTION_DOT":4.9e-7,"MEAN_MOTION_DDOT":0},{"OBJECT_NAME":"QIANFAN-218","OBJECT_ID":"2026-153T","EPOCH":"2026-07-18T19:40:14.444832","CLASSIFICATION_TYPE":"U","MEAN_MOTION":14.26811327,"ECCENTRICITY":0.0007783,"INCLINATION":88.9928,"RA_OF_ASC_NODE":358.6286,"ARG_OF_PERICENTER":167.6606,"MEAN_ANOMALY":192.478,"EPHEMERIS_TYPE":0,"NORAD_CAT_ID":69817,"ELEMENT_SET_NO":999,"REV_AT_EPOCH":206,"BSTAR":0.000044758,"MEAN_MOTION_DOT":0.00000123,"MEAN_MOTION_DDOT":0},{"OBJECT_NAME":"QIANFAN-219","OBJECT_ID":"2026-155A","EPOCH":"2026-07-18T14:11:08.455776","CLASSIFICATION_TYPE":"U","MEAN_MOTION":14.26455418,"ECCENTRICITY":0.0030833,"INCLINATION":89.0064,"RA_OF_ASC_NODE":60.5597,"ARG_OF_PERICENTER":211.5196,"MEAN_ANOMALY":148.4151,"EPHEMERIS_TYPE":0,"NORAD_CAT_ID":69848,"ELEMENT_SET_NO":999,"REV_AT_EPOCH":186,"BSTAR":0.000015688,"MEAN_MOTION_DOT":5.2e-7,"MEAN_MOTION_DDOT":0},{"OBJECT_NAME":"QIANFAN-220","OBJECT_ID":"2026-155B","EPOCH":"2026-07-18T19:47:30.031296","CLASSIFICATION_TYPE":"U","MEAN_MOTION":14.17597586,"ECCENTRICITY":0.0029687,"INCLINATION":89.0064,"RA_OF_ASC_NODE":60.5391,"ARG_OF_PERICENTER":210.0208,"MEAN_ANOMALY":149.928,"EPHEMERIS_TYPE":0,"NORAD_CAT_ID":69849,"ELEMENT_SET_NO":999,"REV_AT_EPOCH":189,"BSTAR":0.000015818,"MEAN_MOTION_DOT":4.6e-7,"MEAN_MOTION_DDOT":0},{"OBJECT_NAME":"QIANFAN-221","OBJECT_ID":"2026-155C","EPOCH":"2026-07-18T20:53:43.188000","CLASSIFICATION_TYPE":"U","MEAN_MOTION":14.26647912,"ECCENTRICITY":0.0030679,"INCLINATION":89.0064,"RA_OF_ASC_NODE":60.5275,"ARG_OF_PERICENTER":210.9891,"MEAN_ANOMALY":148.9494,"EPHEMERIS_TYPE":0,"NORAD_CAT_ID":69850,"ELEMENT_SET_NO":999,"REV_AT_EPOCH":190,"BSTAR":0.000066474,"MEAN_MOTION_DOT":0.00000176,"MEAN_MOTION_DDOT":0},{"OBJECT_NAME":"QIANFAN-222","OBJECT_ID":"2026-155D","EPOCH":"2026-07-17T19:58:00.985440","CLASSIFICATION_TYPE":"U","MEAN_MOTION":14.22185075,"ECCENTRICITY":0.00295553,"INCLINATION":89.0065,"RA_OF_ASC_NODE":60.6495,"ARG_OF_PERICENTER":214.6997,"MEAN_ANOMALY":145.2267,"EPHEMERIS_TYPE":0,"NORAD_CAT_ID":69851,"ELEMENT_SET_NO":999,"REV_AT_EPOCH":175,"BSTAR":0.000015570034,"MEAN_MOTION_DOT":4.9e-7,"MEAN_MOTION_DDOT":0},{"OBJECT_NAME":"QIANFAN-223","OBJECT_ID":"2026-155E","EPOCH":"2026-07-18T19:33:17.437824","CLASSIFICATION_TYPE":"U","MEAN_MOTION":14.22140389,"ECCENTRICITY":0.0029408,"INCLINATION":89.0065,"RA_OF_ASC_NODE":60.5379,"ARG_OF_PERICENTER":210.6808,"MEAN_ANOMALY":149.2665,"EPHEMERIS_TYPE":0,"NORAD_CAT_ID":69852,"ELEMENT_SET_NO":999,"REV_AT_EPOCH":189,"BSTAR":0.000067559,"MEAN_MOTION_DOT":0.00000165,"MEAN_MOTION_DDOT":0},{"OBJECT_NAME":"QIANFAN-224","OBJECT_ID":"2026-155F","EPOCH":"2026-07-17T21:29:45.028320","CLASSIFICATION_TYPE":"U","MEAN_MOTION":14.18497223,"ECCENTRICITY":0.00311144,"INCLINATION":89.0052,"RA_OF_ASC_NODE":60.6399,"ARG_OF_PERICENTER":224.5648,"MEAN_ANOMALY":135.3039,"EPHEMERIS_TYPE":0,"NORAD_CAT_ID":69853,"ELEMENT_SET_NO":999,"REV_AT_EPOCH":176,"BSTAR":-0.93450076,"MEAN_MOTION_DOT":-0.01809487,"MEAN_MOTION_DDOT":0}]}
